O3B FM5                 
1 39188U 13031A   20044.72110599 -.00000021  00000-0  00000-0 0  9995
2 39188   0.0385 346.6670 0003263 344.5228  28.7862  5.00116036121280
O3B FM4                 
1 39189U 13031B   20045.57398615 -.00000023  00000-0  00000+0 0  9998
2 39189   0.0468  23.9396 0002599 304.6736  31.3652  5.00114147121340
O3B FM2                 
1 39190U 13031C   20045.63861117 -.00000023  00000-0  00000-0 0  9990
2 39190   0.0489  29.5719 0002746 148.4408 181.9823  5.00115825121313
O3B PFM                 
1 39191U 13031D   20044.69243870 -.00000021  00000-0  00000-0 0  9994
2 39191   0.0406 359.8266 0002471 334.4697  25.6854  5.00115176121194
O3B FM3                 
1 40079U 14038A   20045.37328445 -.00000022  00000-0  00000-0 0  9998
2 40079   0.0421  15.6003 0004935 311.2327  33.1299  5.00115730 97403
O3B FM7                 
1 40080U 14038B   20045.71967060 -.00000023  00000-0  00000-0 0  9991
2 40080   0.0406  21.6314 0000788 319.3363  19.0232  5.00116272102219
O3B FM6                 
1 40081U 14038C   20044.54657963 -.00000021  00000-0  00000-0 0  9998
2 40081   0.0430  16.1892 0002636 307.4613  36.3255  5.00114912102134
O3B FM8                 
1 40082U 14038D   20043.40052003 -.00000020  00000-0  00000+0 0  9995
2 40082   0.0451  19.0513 0002601 301.5896  39.3343  5.00115103102213
O3B FM10                
1 40348U 14083A   20044.82633530 -.00000022  00000-0  00000-0 0  9990
2 40348   0.0445   4.3411 0002619 318.4889  37.1458  5.00115349 94218
O3B FM11                
1 40349U 14083B   20044.83964728 -.00000022  00000-0  00000+0 0  9997
2 40349   0.0398   4.3032 0002105 332.0571  23.6240  5.00115916 94225
O3B FM12                
1 40350U 14083C   20044.70720545 -.00000021  00000-0  00000-0 0  9992
2 40350   0.0404   5.5291 0002342 316.8310  37.6175  5.00115514 94214
O3B FM9                 
1 40351U 14083D   20044.69314638 -.00000021  00000-0  00000-0 0  9993
2 40351   0.0386   3.8568 0002584 320.7021  35.4179  5.00115194 94239
DIAMOND RED             
1 42783U 17036U   20045.80625963  .00000665  00000-0  31523-4 0  9996
2 42783  97.3193 102.6596 0013761 102.3784 257.8994 15.22599713146931
DIAMOND GREEN           
1 42785U 17036W   20045.87077813  .00000671  00000-0  31787-4 0  9999
2 42785  97.3195 102.7538 0013676 102.7217 257.5549 15.22601546147013
DIAMOND BLUE            
1 42786U 17036X   20045.86998771  .00000654  00000-0  31019-4 0  9993
2 42786  97.3195 102.7494 0013499 102.8911 257.3834 15.22599642147018
LEO VANTAGE 1           
1 43113U 18004C   20045.79179247 -.00000059  00000-0 -18233-4 0  9999
2 43113  99.3951 105.2693 0005765  35.0577 325.0948 13.69841251105238
TINTIN A                
1 43216U 18020B   20046.08999336  .00000781  00000-0  38543-4 0  9999
2 43216  97.4515  56.2169 0011335 273.5241  86.4698 15.20790766109740
TINTIN B                
1 43217U 18020C   20046.07925153  .00000669  00000-0  33517-4 0  9996
2 43217  97.4575  56.8851 0010307 271.0233  88.9821 15.20782075109742
O3B FM15                
1 43231U 18024A   20045.35946865 -.00000022  00000-0  00000-0 0  9990
2 43231   0.0479   3.6958 0002846 324.0150  32.2657  5.00115164 35366
O3B FM16                
1 43232U 18024B   20044.81310894 -.00000022  00000-0  00000-0 0  9998
2 43232   0.0518   2.1527 0002818 325.2524  32.5714  5.00115198 35346
O3B FM14                
1 43233U 18024C   20045.25330977 -.00000022  00000-0  00000-0 0  9992
2 43233   0.0533   2.3099 0002635 325.5961  32.0719  5.00116417 35362
O3B FM13                
1 43234U 18024D   20043.66768481 -.00000020  00000-0  00000-0 0  9999
2 43234   0.0311 336.9783 0004199  27.9692 355.0507  5.00115826 35270
O3B FM20                
1 44112U 19020A   20044.67969533 -.00000021  00000-0  00000-0 0  9996
2 44112   0.0447   5.1429 0002792 328.9417  25.8954  5.00116726 15810
O3B FM19                
1 44113U 19020B   20043.66767986 -.00000020  00000-0  00000-0 0  9992
2 44113   0.0394 311.9794 0004121  32.1084  15.8934  5.00115269 15758
O3B FM17                
1 44114U 19020C   20045.58644738 -.00000023  00000-0  00000-0 0  9998
2 44114   0.0458   5.3361 0002844 322.1140  32.5263  5.00116018 15854
O3B FM18                
1 44115U 19020D   20043.33425527 -.00000020  00000-0  00000-0 0  9990
2 44115   0.0444   4.7609 0002872 318.3944  36.8191  5.00115610 15740
